STARLINK-30700          
1 57953U 23148U   25179.18952100 -.00001016  00000+0 -22179-4 0  9991
2 57953  53.1605 116.3435 0001279  89.4373 270.6774 15.30194310 99599
STARLINK-30703          
1 57954U 23148V   25179.03254486  .00000421  00000+0  26361-4 0  9992
2 57954  53.1603 117.0317 0001525  86.0431 274.0744 15.30190007 99579
STARLINK-30702          
1 57955U 23148W   25179.10208014 -.00000437  00000+0 -26279-5 0  9995
2 57955  53.1598 116.7487 0001316  78.8270 281.2878 15.30194080 99589
STARLINK-30396          
1 57964U 23151A   25179.01846340 -.00000222  00000+0 -13968-5 0  9992
2 57964  43.0026 282.6799 0000966 278.5757  81.4976 15.02537542 97424
STARLINK-30524          
1 57965U 23151B   25179.58791636  .00000061  00000+0  19584-4 0  9990
2 57965  43.0025 279.2228 0001862 273.1037  86.9593 15.02533498 97512
STARLINK-30521          
1 57966U 23151C   25179.26329964 -.00001079  00000+0 -64814-4 0  9995
2 57966  43.0039 281.0778 0001894 269.5126  90.5500 15.02530936 97469
STARLINK-30528          
1 57967U 23151D   25179.32644395 -.00000100  00000+0  76704-5 0  9996
2 57967  43.0040 280.6847 0001382 270.5748  89.4936 15.02535172 97476
STARLINK-30495          
1 57968U 23151E   25179.35641304 -.00000570  00000+0 -27109-4 0  9993
2 57968  43.0027 280.9067 0001241 255.0918 104.9787 15.02532722 97475
STARLINK-30484          
1 57969U 23151F   25179.58902654 -.00000145  00000+0  43115-5 0  9990
2 57969  43.0041 279.2212 0001435 267.6354  92.4324 15.02532814 97518
STARLINK-30494          
1 57970U 23151G   25179.44236521 -.00000305  00000+0 -15461-5 0  9992
2 57970  42.9985 240.6912 0001543 260.7084  99.3593 15.27573312 97955
STARLINK-30498          
1 57971U 23151H   25179.29548136  .00000284  00000+0  36145-4 0  9999
2 57971  43.0042 281.2967 0001807 276.7086  83.3550 15.02532833 97463
STARLINK-30505          
1 57972U 23151J   25179.31212953 -.00000110  00000+0  69488-5 0  9994
2 57972  43.0029 281.4211 0001415 271.9057  88.1623 15.02532328 97466
STARLINK-30502          
1 57973U 23151K   25179.56583597 -.00000519  00000+0 -23371-4 0  9991
2 57973  43.0029 279.8815 0001455 270.8587  89.2089 15.02530904 97509
STARLINK-30489          
1 57974U 23151L   25179.59124512 -.00001016  00000+0 -60171-4 0  9995
2 57974  43.0034 279.2278 0001441 265.1359  94.9319 15.02536660 97517
STARLINK-30503          
1 57975U 23151M   25179.57359952 -.00000278  00000+0 -54731-5 0  9997
2 57975  43.0049 279.9219 0001332 262.1943  97.8748 15.02532687 97503
STARLINK-30512          
1 57976U 23151N   25179.01069318 -.00000092  00000+0  82597-5 0  9995
2 57976  43.0024 282.5507 0001114 265.8419  94.2296 15.02535410 97420
STARLINK-30509          
1 57977U 23151P   25179.39718067  .00000256  00000+0  34018-4 0  9994
2 57977  43.0043 293.9280 0001343 264.6696  95.3994 15.02533331 97320
STARLINK-30511          
1 57978U 23151Q   25179.58995696 -.00000528  00000+0 -24034-4 0  9992
2 57978  43.0045 292.7973 0001461 268.5570  91.5105 15.02534581 97357
STARLINK-30508          
1 57979U 23151R   25179.58662841 -.00000778  00000+0 -42555-4 0  9991
2 57979  43.0025 292.7611 0001404 272.5560  87.5122 15.02532823 97357
STARLINK-30504          
1 57980U 23151S   25179.20211077 -.00000392  00000+0 -51407-5 0  9992
2 57980  43.0036 229.6105 0001746 276.5729  83.4923 15.25918225 98060
STARLINK-30510          
1 57981U 23151T   25179.31738171  .00000461  00000+0  49189-4 0  9992
2 57981  43.0039 294.1901 0001655 261.9252  98.1403 15.02536608 97312
STARLINK-30507          
1 57982U 23151U   25179.38053051  .00000135  00000+0  25048-4 0  9993
2 57982  43.0046 293.8057 0001515 259.9300 100.1371 15.02535026 97327
STARLINK-30515          
1 57983U 23151V   25179.37720149  .00000305  00000+0  37673-4 0  9998
2 57983  43.0040 293.7808 0001586 262.0155  98.0507 15.02534224 97321
STARLINK-30516          
1 57984U 23151W   25179.30739254  .00000433  00000+0  47147-4 0  9998
2 57984  43.0043 294.1178 0001446 267.5118  92.5559 15.02535470 97313
STARLINK-30519          
1 57985U 23151X   25179.37054025  .00000240  00000+0  32819-4 0  9998
2 57985  43.0027 293.7284 0001549 268.8476  91.2189 15.02536321 97269
STARLINK-30537          
1 57991U 23153A   25179.55503642  .00000184  00000+0  28665-4 0  9992
2 57991  43.0052  10.0190 0001327 265.7639  94.3052 15.02536071 96546
STARLINK-30534          
1 57992U 23153B   25179.56503065 -.00009287  00000+0 -67264-3 0  9995
2 57992  43.0055  10.0883 0002428 268.0102  92.0463 15.02568914 96545
STARLINK-30536          
1 57993U 23153C   25179.61485884 -.00000318  00000+0 -84351-5 0  9994
2 57993  43.0060   9.6097 0001421 267.3620  92.7059 15.02538354 96657
STARLINK-30538          
1 57994U 23153D   25179.54172379 -.00000974  00000+0 -57067-4 0  9990
2 57994  43.0041   9.9128 0001084 267.5373  92.5345 15.02532535 96546
STARLINK-30517          
1 57995U 23153E   25179.60486344 -.00000968  00000+0 -56563-4 0  9991
2 57995  43.0065   9.5304 0001356 255.2966 104.7726 15.02541351 96656
STARLINK-30523          
1 57997U 23153G   25179.61152960 -.00000526  00000+0 -23881-4 0  9995
2 57997  43.0061   9.5837 0001291 268.9287  91.1407 15.02532787 96658
STARLINK-30531          
1 57998U 23153H   25179.57489790  .00001082  00000+0  95220-4 0  9997
2 57998  43.0050   9.3110 0001249 264.7338  95.3362 15.02523604 96657
STARLINK-30552          
1 57999U 23153J   25179.59820554  .00001322  00000+0  11285-3 0  9992
2 57999  43.0042   9.4797 0001420 221.8644 138.2090 15.02555074 96657
STARLINK-30545          
1 58000U 23153K   25179.59487489 -.00003336  00000+0 -23200-3 0  9991
2 58000  43.0070   9.4552 0001470 271.2929  88.7745 15.02539163 96658
STARLINK-30535          
1 58001U 23153L   25179.52507094 -.00000252  00000+0 -35727-5 0  9993
2 58001  43.0055   9.7884 0001351 262.8313  97.2376 15.02535020 96646
STARLINK-30540          
1 58002U 23153M   25179.49521532  .00000706  00000+0  67369-4 0  9991
2 58002  43.0057  10.4078 0001419 268.4276  91.6403 15.02536300 96537
STARLINK-30546          
1 58003U 23153N   25179.58821983 -.00000186  00000+0  12890-5 0  9998
2 58003  43.0043   9.4029 0001248 261.7450  98.3251 15.02532128 96659
STARLINK-30539          
1 58004U 23153P   25179.58488704  .00000283  00000+0  36044-4 0  9992
2 58004  43.0055   9.3791 0001248 260.5577  99.5124 15.02535714 96651
STARLINK-30530          
1 58005U 23153Q   25179.57822713  .00000474  00000+0  50170-4 0  9992
2 58005  43.0054   9.3272 0001287 262.0842  97.9854 15.02534384 96654
STARLINK-30526          
1 58006U 23153R   25179.52570149 -.00000683  00000+0 -35472-4 0  9993
2 58006  43.0031 344.6032 0001190 265.4620  94.6086 15.02532693 96936
STARLINK-30527          
1 58007U 23153S   25179.10094767  .00000538  00000+0  29072-4 0  9991
2 58007  43.0027 196.1614 0001219 265.3597  94.7116 15.27559819 98520
STARLINK-30522          
1 58008U 23153T   25179.53506056  .00000391  00000+0  44029-4 0  9994
2 58008  43.0068   9.8580 0001234 261.9072  98.1630 15.02529172 96647
STARLINK-30486          
1 58009U 23153U   25179.51507839  .00000345  00000+0  40592-4 0  9993
2 58009  43.0049   9.7104 0001200 263.5371  96.5335 15.02535363 96543
STARLINK-30520          
1 58010U 23153V   25179.57168795 -.00000173  00000+0  22934-5 0  9996
2 58010  43.0039  10.1231 0001255 231.7152 128.3578 15.02532672 96548
STARLINK-30497          
1 58011U 23153W   25179.56835498  .00000726  00000+0  68797-4 0  9996
2 58011  43.0051  10.0964 0001226 263.2740  96.7963 15.02534575 96647
STARLINK-30525          
1 58012U 23153X   25179.55836574  .00000445  00000+0  47980-4 0  9991
2 58012  43.0047  10.0209 0001188 267.4305  92.6401 15.02535045 96640
STARLINK-30514          
1 58028U 23156A   25179.38507379  .00001003  00000+0  45989-4 0  9998
2 58028  53.1580 179.3951 0001092  69.9916 290.1202 15.30199506 97386
STARLINK-30518          
1 58029U 23156B   25179.39457118 -.00000172  00000+0  63305-5 0  9995
2 58029  53.1589 179.4619 0001108  82.8668 277.2459 15.30186252 97388
STARLINK-30549          
1 58030U 23156C   25179.22497748 -.00000518  00000+0 -53613-5 0  9998
2 58030  53.1601 180.3501 0001197  89.2624 270.8514 15.30196524 97303
STARLINK-30556          
1 58031U 23156D   25179.43875952 -.00001657  00000+0 -43852-4 0  9997
2 58031  53.1603 189.3643 0000853  47.2632 312.8440 15.30200505 97235
STARLINK-30561          
1 58032U 23156E   25179.23131030 -.00000218  00000+0  47565-5 0  9995
2 58032  53.1598 180.3881 0001064  82.1466 277.9656 15.30192845 97352
STARLINK-30562          
1 58033U 23156F   25179.58335648  .00012446  00000+0  73012-3 0  9994
2 58033  53.1583 265.7985 0001716  76.2797  15.0546 15.12117187  5797
STARLINK-30565          
1 58034U 23156G   25179.16810631 -.00001086  00000+0 -24566-4 0  9990
2 58034  53.1593 180.7116 0000862  24.7965 335.3077 15.30179460 97348
STARLINK-30438          
1 58035U 23156H   25179.37979419 -.00000212  00000+0  49502-5 0  9991
2 58035  53.1590 179.3583 0001080  84.8308 275.2816 15.30190667 97333
STARLINK-30437          
1 58036U 23156J   25179.32292191  .00001327  00000+0  56931-4 0  9992
2 58036  53.1589 179.7099 0001243  91.0322 269.0821 15.30187738 97326
STARLINK-30533          
1 58037U 23156K   25179.58335648  .00012775  00000+0  74937-3 0  9990
2 58037  53.1579 265.7081 0001440  86.7181  44.2230 15.12095954  5746
STARLINK-30560          
1 58038U 23156L   25179.27384901  .00000212  00000+0  19298-4 0  9996
2 58038  53.1589 177.2749 0001083  82.0596 278.0528 15.30193639 97352
STARLINK-30559          
1 58039U 23156M   25179.58335648  .00010315  00000+0  60832-3 0  9999
2 58039  53.1587 265.8648 0001619  72.6746 343.4691 15.12111817  5849
STARLINK-30555          
1 58040U 23156N   25179.58335648  .00011436  00000+0  67233-3 0  9998
2 58040  53.1585 265.8400 0001714  79.5236 352.4725 15.12120058  5789
